1 51085U 22002DF  23182.03710719  .00006401  00000-0  31838-3 0  9996
2 51085  97.4382 246.6399 0012779 197.8428 162.2359 15.17895229 80700
1 51085U 22002DF  23182.43264327  .00005559  00000-0  27694-3 0  9997
2 51085  97.4382 247.0286 0012823 196.4248 163.6572 15.17899471 80766
1 51085U 22002DF  23182.69633325  .00005563  00000-0  27712-3 0  9999
2 51085  97.4381 247.2878 0012839 195.5178 164.5664 15.17903159 80809
1 51085U 22002DF  23183.09186746  .00005827  00000-0  29008-3 0  9997
2 51085  97.4380 247.6766 0012873 194.2597 165.8276 15.17907921 80867
1 51085U 22002DF  23183.42147839  .00005501  00000-0  27401-3 0  9998
2 51085  97.4379 248.0005 0012905 193.1502 166.9397 15.17911046 80911
1 51085U 22002DF  23183.61924448  .00006005  00000-0  29875-3 0  9995
2 51085  97.4379 248.1949 0012921 192.4825 167.6091 15.17914434 80943
1 51085U 22002DF  23184.08069767  .00006130  00000-0  30485-3 0  9999
2 51085  97.4378 248.6485 0012969 190.8906 169.2049 15.17920019 81012
1 51085U 22002DF  23184.47622747  .00006393  00000-0  31770-3 0  9994
2 51085  97.4377 249.0373 0013008 189.5750 170.5238 15.17925026 81073
1 51085U 22002DF  23184.67399188  .00006556  00000-0  32570-3 0  9996
2 51085  97.4376 249.2317 0013028 188.9043 171.1962 15.17927839 81101
1 51085U 22002DF  23185.13544082  .00006845  00000-0  33984-3 0  9994
2 51085  97.4376 249.6852 0013081 187.2775 172.8271 15.17934254 81179
1 51085U 22002DF  23185.46504584  .00007321  00000-0  36312-3 0  9991
2 51085  97.4374 250.0091 0013115 186.1660 173.9414 15.17939487 81227
1 51085U 22002DF  23185.66280839  .00007389  00000-0  36643-3 0  9998
2 51085  97.4374 250.2035 0013137 185.4760 174.6333 15.17942506 81251
1 51085U 22002DF  23185.99241171  .00007524  00000-0  37304-3 0  9996
2 51085  97.4373 250.5275 0013183 184.3433 175.7688 15.17947389 81300
1 51085U 22002DF  23186.38793456  .00007026  00000-0  34854-3 0  9992
2 51085  97.4372 250.9163 0013207 182.8978 177.2182 15.17952045 81360
1 51085U 22002DF  23186.71753588  .00007052  00000-0  34976-3 0  9995
2 51085  97.4372 251.2403 0013227 181.7792 178.3397 15.17956893 81416
1 51085U 22002DF  23187.11305609  .00006982  00000-0  34626-3 0  9990
2 51085  97.4371 251.6291 0013265 180.3650 179.7577 15.17962402 81478
1 51085U 22002DF  23187.44265548  .00006885  00000-0  34144-3 0  9990
2 51085  97.4370 251.9532 0013296 179.2569 180.8687 15.17966340 81524
1 51085U 22002DF  23187.64041447  .00007131  00000-0  35346-3 0  9992
2 51085  97.4369 252.1476 0013312 178.6371 181.4901 15.17969687 81551
1 51085U 22002DF  23188.16776998  .00007318  00000-0  36257-3 0  9995
2 51085  97.4369 252.6659 0013367 176.8114 183.3207 15.17977419 81635
1 51085U 22002DF  23188.43144689  .00007541  00000-0  37346-3 0  9999
2 51085  97.4367 252.9251 0013399 175.7908 184.3441 15.17981004 81678
1 51085U 22002DF  23188.76104175  .00007886  00000-0  39029-3 0  9993
2 51085  97.4367 253.2491 0013430 174.7193 185.4186 15.17986559 81723
1 51085U 22002DF  23189.02471695  .00008189  00000-0  40511-3 0  9992
2 51085  97.4366 253.5082 0013444 173.8626 186.2775 15.17990788 81763
1 51085U 22002DF  23189.42022829  .00008263  00000-0  40864-3 0  9991
2 51085  97.4365 253.8970 0013483 172.5598 187.5839 15.17997051 81820
1 51085U 22002DF  23189.81573851  .00007481  00000-0  37028-3 0  9999
2 51085  97.4365 254.2857 0013519 171.3530 188.7940 15.18001505 81885
1 51085U 22002DF  23190.14532909  .00007956  00000-0  39351-3 0  9994
2 51085  97.4366 254.6096 0013531 170.3509 189.7988 15.18007008 81937
1 51085U 22002DF  23190.47491889  .00006676  00000-0  33077-3 0  9998
2 51085  97.4366 254.9335 0013563 169.2632 190.8894 15.18009428 81987
1 51085U 22002DF  23190.73859002  .00006819  00000-0  33772-3 0  9993
2 51085  97.4367 255.1926 0013581 168.4060 191.7489 15.18013276 82025
1 51085U 22002DF  23191.13409545  .00007335  00000-0  36293-3 0  9996
2 51085  97.4369 255.5814 0013615 167.0475 193.1111 15.18019776 82085
1 51085U 22002DF  23191.46368215  .00007030  00000-0  34794-3 0  9996
2 51085  97.4369 255.9053 0013641 165.9525 194.2091 15.18023615 82138
1 51085U 22002DF  23191.72735079  .00007094  00000-0  35105-3 0  9998
2 51085  97.4370 256.1644 0013664 165.0663 195.0977 15.18027528 82171
1 51085U 22002DF  23192.12285251  .00006900  00000-0  34148-3 0  9996
2 51085  97.4371 256.5531 0013707 163.7950 196.3725 15.18032756 82234
1 51085U 22002DF  23192.45243591  .00007069  00000-0  34971-3 0  9994
2 51085  97.4372 256.8770 0013737 162.6691 197.5015 15.18038070 82281
1 51085U 22002DF  23192.71610182  .00007529  00000-0  37217-3 0  9994
2 51085  97.4373 257.1362 0013759 161.7031 198.4701 15.18043091 82321
1 51085U 22002DF  23192.97976689  .00007834  00000-0  38706-3 0  9992
2 51085  97.4373 257.3953 0013785 160.8197 199.3558 15.18047582 82364
1 51085U 22002DF  23193.44117894  .00007893  00000-0  38985-3 0  9994
2 51085  97.4374 257.8488 0013830 159.2399 200.9400 15.18055392 82431
1 51085U 22002DF  23193.70484189  .00008307  00000-0  41004-3 0  9994
2 51085  97.4375 258.1080 0013849 158.4042 201.7779 15.18060570 82476
1 51085U 22002DF  23194.69357134  .00007561  00000-0  37337-3 0  9997
2 51085  97.4375 259.0798 0013922 155.2131 204.9774 15.18075784 82628
1 51085U 22002DF  23195.02314562  .00008180  00000-0  40356-3 0  9996
2 51085  97.4374 259.4038 0013930 154.1980 205.9951 15.18081630 82677
1 51085U 22002DF  23195.41863333  .00008183  00000-0  40361-3 0  9993
2 51085  97.4374 259.7924 0013953 152.9902 207.2061 15.18087692 82737
1 51085U 22002DF  23195.68229052  .00009139  00000-0  45028-3 0  9993
2 51085  97.4374 260.0516 0013959 152.1561 208.0423 15.18093879 82777
1 51085U 22002DF  23196.07777503  .00009700  00000-0  47757-3 0  9991
2 51085  97.4374 260.4404 0013973 150.9413 209.2602 15.18101107 82838
1 51085U 22002DF  23196.47325757  .00009395  00000-0  46256-3 0  9998
2 51085  97.4374 260.8291 0014002 149.6939 210.5108 15.18107625 82891
1 51085U 22002DF  23196.73691147  .00009419  00000-0  46367-3 0  9996
2 51085  97.4374 261.0882 0014014 148.8282 211.3786 15.18112766 82933
1 51085U 22002DF  23197.13239063  .00009272  00000-0  45641-3 0  9997
2 51085  97.4373 261.4770 0014032 147.6286 212.5811 15.18120039 82993
1 51085U 22002DF  23197.39604259  .00008369  00000-0  41226-3 0  9999
2 51085  97.4374 261.7362 0014057 146.7714 213.4405 15.18123350 83031
1 51085U 22002DF  23197.79151887  .00008335  00000-0  41054-3 0  9999
2 51085  97.4373 262.1249 0014087 145.4688 214.7464 15.18130561 83095
1 51085U 22002DF  23197.98925639  .00008366  00000-0  41201-3 0  9992
2 51085  97.4373 262.3194 0014102 144.8339 215.3829 15.18133931 83120
1 51085U 22002DF  23198.45064137  .00009951  00000-0  48918-3 0  9995
2 51085  97.4372 262.7732 0014147 143.2991 216.9215 15.18145278 83197
1 51085U 22002DF  23198.78020068  .00009885  00000-0  48583-3 0  9990
2 51085  97.4371 263.0971 0014168 142.2089 218.0143 15.18151375 83249
1 51085U 22002DF  23199.10975852  .00009900  00000-0  48650-3 0  9990
2 51085  97.4370 263.4212 0014185 141.1275 219.0981 15.18157774 83299
1 51085U 22002DF  23199.43931447  .00011263  00000-0  55279-3 0  9998
2 51085  97.4370 263.7452 0014231 139.9615 220.2671 15.18166281 83342
1 51085U 22002DF  23199.57113667  .00009771  00000-0  48007-3 0  9991
2 51085  97.4369 263.8748 0014244 139.5646 220.6650 15.18167330 83362
1 51085U 22002DF  23200.09842267  .00008977  00000-0  44126-3 0  9991
2 51085  97.4367 264.3931 0014250 137.9524 222.2807 15.18176622 83449
1 51085U 22002DF  23200.42797485  .00008604  00000-0  42301-3 0  9999
2 51085  97.4366 264.7172 0014259 136.8727 223.3627 15.18182365 83499
1 51085U 22002DF  23200.82343624  .00008061  00000-0  39647-3 0  9991
2 51085  97.4364 265.1060 0014268 135.6805 224.5574 15.18188206 83553
1 51085U 22002DF  23201.74617310  .00008439  00000-0  41472-3 0  9997
2 51085  97.4361 266.0132 0014279 132.9264 227.3171 15.18203163 83690
1 51085U 22002DF  23202.14162864  .00009949  00000-0  48812-3 0  9993
2 51085  97.4359 266.4020 0014260 131.7195 228.5261 15.18211898 83751
1 51085U 22002DF  23202.40526495  .00009516  00000-0  46700-3 0  9990
2 51085  97.4359 266.6612 0014276 130.9159 229.3314 15.18215341 83797
1 51085U 22002DF  23202.73480911  .00009541  00000-0  46811-3 0  9999
2 51085  97.4358 266.9850 0014290 129.8924 230.3568 15.18221043 83841
1 51085U 22002DF  23205.30520632  .00008399  00000-0  41196-3 0  9991
2 51085  97.4358 269.5120 0014439 121.6437 238.6208 15.18267544 84236
1 51085U 22002DF  23206.55742306  .00007951  00000-0  38996-3 0  9990
2 51085  97.4357 270.7430 0014457 117.7737 242.4965 15.18288382 84429
1 51085U 22002DF  23207.54600244  .00010579  00000-0  51730-3 0  9995
2 51085  97.4358 271.7147 0014443 114.8221 245.4517 15.18309192 84572
1 51085U 22002DF  23207.74371672  .00010524  00000-0  51457-3 0  9993
2 51085  97.4358 271.9091 0014424 114.3191 245.9551 15.18312847 84600
1 51085U 22002DF  23207.87552613  .00010469  00000-0  51188-3 0  9992
2 51085  97.4358 272.0387 0014437 113.8144 246.4605 15.18315003 84621
1 51085U 22002DF  23208.13914400  .00010846  00000-0  53008-3 0  9990
2 51085  97.4359 272.2978 0014418 113.0423 247.2333 15.18320635 84669
1 51085U 22002DF  23208.40276070  .00010133  00000-0  49544-3 0  9993
2 51085  97.4359 272.5569 0014417 112.2004 248.0762 15.18325174 84706
1 51085U 22002DF  23208.60047277  .00009609  00000-0  46997-3 0  9995
2 51085  97.4360 272.7513 0014409 111.5948 248.6823 15.18328940 84730
1 51085U 22002DF  23208.66637666  .00009538  00000-0  46647-3 0  9991
2 51085  97.4360 272.8161 0014415 111.3779 248.8995 15.18330327 84742
1 51085U 22002DF  23208.86408798  .00009551  00000-0  46706-3 0  9996
2 51085  97.4361 273.0105 0014421 110.7657 249.5123 15.18334162 84774
1 51085U 22002DF  23209.12770238  .00009398  00000-0  45959-3 0  9995
2 51085  97.4362 273.2696 0014443 109.9242 250.3550 15.18338997 84815
1 51085U 22002DF  23209.45721933  .00008293  00000-0  40595-3 0  9993
2 51085  97.4364 273.5935 0014457 108.8891 251.3912 15.18343503 84866
1 51085U 22002DF  23209.45721933  .00008293  00000-0  40595-3 0  9993
2 51085  97.4364 273.5935 0014457 108.8891 251.3912 15.18343503 84866
1 51085U 22002DF  23209.72083191  .00007938  00000-0  38868-3 0  9995
2 51085  97.4364 273.8527 0014476 108.0389 252.2424 15.18348047 84902
1 51085U 22002DF  23210.11624922  .00008031  00000-0  39310-3 0  9991
2 51085  97.4364 274.2414 0014487 106.8098 253.4727 15.18355250 84966
1 51085U 22002DF  23210.44576208  .00008669  00000-0  42393-3 0  9992
2 51085  97.4366 274.5654 0014507 105.7104 254.5731 15.18362277 85017
1 51085U 22002DF  23210.77527401  .00008403  00000-0  41097-3 0  9995
2 51085  97.4366 274.8894 0014519 104.7246 255.5599 15.18367542 85063
1 51085U 22002DF  23211.10478420  .00008942  00000-0  43699-3 0  9997
2 51085  97.4365 275.2134 0014508 103.6788 256.6063 15.18374471 85114
1 51085U 22002DF  23211.36839184  .00007951  00000-0  38894-3 0  9993
2 51085  97.4365 275.4726 0014512 102.8718 257.4138 15.18377425 85150
1 51085U 22002DF  23211.69789987  .00008294  00000-0  40551-3 0  9998
2 51085  97.4365 275.7966 0014504 101.8082 258.4780 15.18384092 85201
